CUTE-1 (CO-55)          
1 27844U 03031E   26166.49171906  .00000237  00000+0  12167-3 0  9991
2 27844  98.6736 175.0719 0009420 182.9125 177.2000 14.24334794191435
CUBESAT XI-IV (CO-57)   
1 27848U 03031J   26166.47932631  .00000199  00000+0  10658-3 0  9993
2 27848  98.6767 174.7737 0008908 202.2653 157.8140 14.23619986191135
CUBESAT XI-V            
1 28895U 05043F   26166.36421164  .00001202  00000+0  19691-3 0  9995
2 28895  98.2983 321.9478 0013522 206.7180 153.3331 14.72627055101486
CUTE-1.7+APD II (CO-65) 
1 32785U 08021C   26166.59150092  .00003848  00000+0  24445-3 0  9992
2 32785  97.8271 147.9768 0009975  44.1299 316.0723 15.09439257984954
CANX-2                  
1 32790U 08021H   26166.49383330  .00004129  00000+0  29041-3 0  9990
2 32790  97.8630 146.2384 0011456  55.3554 304.8750 15.05605540984557
SEEDS II (CO-66)        
1 32791U 08021J   26166.56872795  .00015199  00000+0  48345-3 0  9994
2 32791  97.7511 164.3889 0001297   9.9046 350.2220 15.32704207987043
SWISSCUBE               
1 35932U 09051B   26166.25297169  .00000842  00000+0  17592-3 0  9999
2 35932  98.4038  74.1075 0005844 209.7614 150.3255 14.62478329888876
BEESAT-1                
1 35933U 09051C   26166.46675995  .00000703  00000+0  15091-3 0  9998
2 35933  98.3966  73.9642 0004133 223.5476 136.5399 14.61718018888936
ITUPSAT1                
1 35935U 09051E   26166.45614387  .00000634  00000+0  14088-3 0  9995
2 35935  98.4051  73.1472 0006197 240.3357 119.7226 14.60438270888484
TISAT 1                 
1 36799U 10035E   26166.61453077  .00017088  00000+0  56119-3 0  9995
2 36799  98.0712 113.0240 0001176 169.7643 190.3621 15.31657247867469
AEROCUBE 4.5A           
1 38767U 12048K   26165.96807538  .00413946  74855-4  10713-2 0  9996
2 38767  64.6249  35.0020 0019534 222.2372 137.7286 15.94483897372303
STRAND-1                
1 39090U 13009E   26166.45470669  .00000220  00000+0  88443-4 0  9990
2 39090  98.3921 346.7318 0007647 231.1589 128.8916 14.37162360696818
BRITE-AUSTRIA           
1 39091U 13009F   26166.46683412  .00000139  00000+0  61898-4 0  9998
2 39091  98.3993 345.9451 0009085 242.3065 117.7200 14.36541469696800
NEE-01 PEGASO           
1 39151U 13018B   26166.38986018  .00002027  00000+0  19741-3 0  9991
2 39151  98.1214 310.4804 0012937 165.1710 194.9891 14.93651825710439
POPACS 2                
1 39269U 13055E   26166.36468816  .00010853  00000+0  18376-3 0  9990
2 39269  80.9902 146.2784 0416885 199.6373 158.8380 14.91171919662944
POPACS 3                
1 39270U 13055F   26166.47030025  .00008012  00000+0  18804-3 0  9991
2 39270  81.0017 231.0485 0552307  75.2193 290.9504 14.56095763638307
ZACUBE-1 (TSHEPISOSAT)  
1 39417U 13066B   26166.40761859  .00002611  00000+0  20511-3 0  9992
2 39417  97.8082 128.7351 0040604 253.8926 105.7825 15.01179836680469
WNISAT-1                
1 39423U 13066H   26166.42681731  .00000705  00000+0  13731-3 0  9999
2 39423  97.7199 315.7080 0161894 237.1756 121.3768 14.58059446666472
TRITON-1                
1 39427U 13066M   26166.60733491  .00001147  00000+0  14306-3 0  9994
2 39427  97.8257  76.4506 0088424 239.1410 120.1083 14.81700537673859
GOMX-1                  
1 39430U 13066Q   26166.61981649  .00001915  00000+0  29130-3 0  9993
2 39430  97.6479   7.1816 0130160  82.5196 279.0777 14.69456470669688
CUBEBUG-2 (LO-74)       
1 39440U 13066AA  26166.38852800  .00003783  00000+0  35100-3 0  9993
2 39440  97.8905 115.3590 0058508  34.8517 325.6511 14.93747885676725
NEE-02 KRYSAOR          
1 39441U 13066AB  26166.52650132  .00002097  00000+0  23305-3 0  9995
2 39441  97.8894 105.7531 0067691  75.5305 285.3408 14.86612129675956
FUNCUBE-1 (AO-73)       
1 39444U 13066AE  26166.46559247  .00005832  00000+0  36309-3 0  9994
2 39444  97.8272 137.8755 0035504 207.0229 152.9152 15.09471681679409
UWE-3                   
1 39446U 13066AG  26166.41095872  .00003615  00000+0  31229-3 0  9993
2 39446  97.8693 122.4726 0047855 327.0614  32.7628 14.97011844677317
BRITE-CA1 (TORONTO)     
1 40020U 14033L   26166.33917076  .00000597  00000+0  97618-4 0  9999
2 40020  97.9736 295.3012 0077245 283.0419  76.2174 14.72674284641949
DUCHIFAT-1              
1 40021U 14033M   26166.42257015  .00087303  00000+0  90897-3 0  9991
2 40021  98.0462 225.3358 0003280 119.3803 240.7782 15.64281009655477
NANOSATC-BR1            
1 40024U 14033Q   26166.57193130  .00014640  00000+0  48492-3 0  9995
2 40024  98.0716 198.8163 0004283 167.4962 192.6384 15.31414107653735
QB50P1                  
1 40025U 14033R   26166.56831469  .00007133  00000+0  35185-3 0  9993
2 40025  98.0960 177.6007 0007682 221.6020 138.4628 15.18240486652788
QB50P2                  
1 40032U 14033Y   26166.51510336  .00005581  00000+0  30147-3 0  9991
2 40032  98.0745 163.2911 0007882 168.2312 191.9104 15.15140467652412
PERSEUS-M2              
1 40037U 14033AD  26166.65806352  .00001252  00000+0  11846-3 0  9993
2 40037  97.9957 117.1677 0010923 309.6492  50.3764 14.95504417650556
