OBJECT_NAME,OBJECT_ID,EPOCH,MEAN_MOTION,ECCENTRICITY,INCLINATION,RA_OF_ASC_NODE,ARG_OF_PERICENTER,MEAN_ANOMALY,EPHEMERIS_TYPE,CLASSIFICATION_TYPE,NORAD_CAT_ID,ELEMENT_SET_NO,REV_AT_EPOCH,BSTAR,MEAN_MOTION_DOT,MEAN_MOTION_DDOT
CUTE-1 (CO-55),2003-031E,2026-06-15T11:48:04.526784,14.24334794,.00094208,98.6736,175.0719,182.9125,177.2000,0,U,27844,999,19143,.1216713E-3,.237E-5,0
CUBESAT XI-IV (CO-57),2003-031J,2026-06-15T11:30:13.793184,14.23619986,.00089083,98.6767,174.7737,202.2653,157.8140,0,U,27848,999,19113,.10657517E-3,.199E-5,0
CUBESAT XI-V,2005-043F,2026-06-15T08:44:27.885696,14.72627055,.00135225,98.2983,321.9478,206.7180,153.3331,0,U,28895,999,10148,.19691438E-3,.1202E-4,0
CUTE-1.7+APD II (CO-65),2008-021C,2026-06-15T14:11:45.679488,15.09439257,.00099753,97.8271,147.9768,44.1299,316.0723,0,U,32785,999,98495,.24444619E-3,.3848E-4,0
CANX-2,2008-021H,2026-06-15T11:51:07.197120,15.05605540,.00114566,97.8630,146.2384,55.3554,304.8750,0,U,32790,999,98455,.2904114E-3,.4129E-4,0
SEEDS II (CO-66),2008-021J,2026-06-15T13:38:58.094880,15.32704207,.00012974,97.7511,164.3889,9.9046,350.2220,0,U,32791,999,98704,.48345218E-3,.15199E-3,0
SWISSCUBE,2009-051B,2026-06-15T06:04:16.754016,14.62478329,.0005844,98.4038,74.1075,209.7614,150.3255,0,U,35932,999,88887,.17592E-3,.842E-5,0
BEESAT-1,2009-051C,2026-06-15T11:12:08.059680,14.61718018,.00041334,98.3966,73.9642,223.5476,136.5399,0,U,35933,999,88893,.15090702E-3,.703E-5,0
ITUPSAT1,2009-051E,2026-06-15T10:56:50.830368,14.60438270,.00061978,98.4051,73.1472,240.3357,119.7226,0,U,35935,999,88848,.14088129E-3,.634E-5,0
TISAT 1,2010-035E,2026-06-15T14:44:55.458528,15.31657247,.0001176,98.0712,113.0240,169.7643,190.3621,0,U,36799,999,86746,.56118727E-3,.17088E-3,0
AEROCUBE 4.5A,2012-048K,2026-06-14T23:14:01.712832,15.94483897,.00195348,64.6249,35.0020,222.2372,137.7286,0,U,38767,999,37230,.10712861E-2,.413946E-2,.74854925E-4
STRAND-1,2013-009E,2026-06-15T10:54:46.658016,14.37162360,.00076477,98.3921,346.7318,231.1589,128.8916,0,U,39090,999,69681,.88442861E-4,.22E-5,0
BRITE-AUSTRIA,2013-009F,2026-06-15T11:12:14.467968,14.36541469,.00090853,98.3993,345.9451,242.3065,117.7200,0,U,39091,999,69680,.61897611E-4,.139E-5,0
NEE-01 PEGASO,2013-018B,2026-06-15T09:21:23.919552,14.93651825,.00129375,98.1214,310.4804,165.1710,194.9891,0,U,39151,999,71043,.19740837E-3,.2027E-4,0
POPACS 2,2013-055E,2026-06-15T08:45:09.057024,14.91171919,.04168853,80.9902,146.2784,199.6373,158.8380,0,U,39269,999,66294,.18375527E-3,.10853E-3,0
POPACS 3,2013-055F,2026-06-15T11:17:13.941600,14.56095763,.05523075,81.0017,231.0485,75.2193,290.9504,0,U,39270,999,63830,.18804419E-3,.8012E-4,0
ZACUBE-1 (TSHEPISOSAT),2013-066B,2026-06-15T09:46:58.246176,15.01179836,.00406046,97.8082,128.7351,253.8926,105.7825,0,U,39417,999,68046,.20510591E-3,.2611E-4,0
WNISAT-1,2013-066H,2026-06-15T10:14:37.015584,14.58059446,.01618941,97.7199,315.7080,237.1756,121.3768,0,U,39423,999,66647,.13731432E-3,.705E-5,0
TRITON-1,2013-066M,2026-06-15T14:34:33.736224,14.81700537,.00884245,97.8257,76.4506,239.1410,120.1083,0,U,39427,999,67385,.14305543E-3,.1147E-4,0
GOMX-1,2013-066Q,2026-06-15T14:52:32.144736,14.69456470,.01301609,97.6479,7.1816,82.5196,279.0777,0,U,39430,999,66968,.29130131E-3,.1915E-4,0
CUBEBUG-2 (LO-74),2013-066AA,2026-06-15T09:19:28.819200,14.93747885,.00585087,97.8905,115.3590,34.8517,325.6511,0,U,39440,999,67672,.35100299E-3,.3783E-4,0
NEE-02 KRYSAOR,2013-066AB,2026-06-15T12:38:09.714048,14.86612129,.00676919,97.8894,105.7531,75.5305,285.3408,0,U,39441,999,67595,.23304651E-3,.2097E-4,0
FUNCUBE-1 (AO-73),2013-066AE,2026-06-15T11:10:27.189408,15.09471681,.00355045,97.8272,137.8755,207.0229,152.9152,0,U,39444,999,67940,.36308765E-3,.5832E-4,0
UWE-3,2013-066AG,2026-06-15T09:51:46.833408,14.97011844,.00478551,97.8693,122.4726,327.0614,32.7628,0,U,39446,999,67731,.31228687E-3,.3615E-4,0
BRITE-CA1 (TORONTO),2014-033L,2026-06-15T08:08:24.353664,14.72674284,.00772454,97.9736,295.3012,283.0419,76.2174,0,U,40020,999,64194,.97618131E-4,.597E-5,0
DUCHIFAT-1,2014-033M,2026-06-15T10:08:30.060960,15.64281009,.000328,98.0462,225.3358,119.3803,240.7782,0,U,40021,999,65547,.90896671E-3,.87303E-3,0
NANOSATC-BR1,2014-033Q,2026-06-15T13:43:34.864320,15.31414107,.00042832,98.0716,198.8163,167.4962,192.6384,0,U,40024,999,65373,.48492316E-3,.1464E-3,0
QB50P1,2014-033R,2026-06-15T13:38:22.389216,15.18240486,.00076823,98.0960,177.6007,221.6020,138.4628,0,U,40025,999,65278,.35185184E-3,.7133E-4,0
QB50P2,2014-033Y,2026-06-15T12:21:44.930304,15.15140467,.00078825,98.0745,163.2911,168.2312,191.9104,0,U,40032,999,65241,.30146674E-3,.5581E-4,0
PERSEUS-M2,2014-033AD,2026-06-15T15:47:36.688128,14.95504417,.00109239,97.9957,117.1677,309.6492,50.3764,0,U,40037,999,65055,.11845665E-3,.1252E-4,0
